FORESAIL-1 PRIME        
1 66778U 25276DS  26157.45418651  .00006049  00000+0  29553-3 0  9996
2 66778  97.4199 230.9223 0003629 125.6883 234.4690 15.18604799 28771
